JILIN-1                 
1 40961U 15057D   26198.27162491  .00000362  00000+0  56502-4 0  9998
2 40961  97.6521 196.1469 0017403 160.2926 199.8961 14.78203069580050
JILIN-1 03              
1 41914U 17002B   26198.26740869  .00007437  00000+0  17476-3 0  9995
2 41914  97.1950 204.9428 0007768  73.8190 286.3912 15.42263389526497
JILIN-1 04              
1 43022U 17074A   26198.31023149  .00008077  00000+0  18422-3 0  9990
2 43022  97.4881 308.7449 0005227  94.9517 265.2328 15.43167028478910
JILIN-1 05              
1 43023U 17074B   26198.32117934  .00004512  00000+0  13827-3 0  9992
2 43023  97.4884 304.8947 0006527 118.8101 241.3798 15.34305303478627
JILIN-1 06              
1 43024U 17074C   26198.23225794  .00003387  00000+0  10533-3 0  9997
2 43024  97.4809 301.7735 0008203 128.0718 232.1266 15.34010097478447
JILIN-1 07              
1 43159U 18008E   26198.27607765  .00004656  00000+0  13853-3 0  9998
2 43159  97.1764 217.4107 0006542 319.0554  41.0198 15.35184358469616
JILIN-1 08              
1 43160U 18008F   26198.29768433  .00003146  00000+0  97861-4 0  9997
2 43160  97.1802 216.7138 0005053 344.3507  15.7580 15.34023735469569
JILIN-1 09              
1 43943U 19005B   26198.31812213  .00002262  00000+0  10594-3 0  9998
2 43943  97.4746 293.0289 0002120  31.0654 329.0707 15.20751082413725
JILIN-1 10              
1 43946U 19005E   26198.29248460  .00003067  00000+0  12202-3 0  9997
2 43946  97.4799 297.1045 0008770 162.9572 197.1962 15.26020089413900
