{"fetched_at":"2026-07-17T17:38:22.296Z","source":"https://celestrak.org/NORAD/elements/gp.php?NAME=JILIN&FORMAT=JSON","constellation":"jilin-1-early","records":[{"OBJECT_NAME":"JILIN-1","OBJECT_ID":"2015-057D","EPOCH":"2026-07-17T06:31:08.392224","CLASSIFICATION_TYPE":"U","MEAN_MOTION":14.78203069,"ECCENTRICITY":0.00174036,"INCLINATION":97.6521,"RA_OF_ASC_NODE":196.1469,"ARG_OF_PERICENTER":160.2926,"MEAN_ANOMALY":199.8961,"EPHEMERIS_TYPE":0,"NORAD_CAT_ID":40961,"ELEMENT_SET_NO":999,"REV_AT_EPOCH":58005,"BSTAR":0.000056501685,"MEAN_MOTION_DOT":0.00000362,"MEAN_MOTION_DDOT":0},{"OBJECT_NAME":"JILIN-1 03","OBJECT_ID":"2017-002B","EPOCH":"2026-07-17T06:25:04.110816","CLASSIFICATION_TYPE":"U","MEAN_MOTION":15.42263389,"ECCENTRICITY":0.00077684,"INCLINATION":97.195,"RA_OF_ASC_NODE":204.9428,"ARG_OF_PERICENTER":73.819,"MEAN_ANOMALY":286.3912,"EPHEMERIS_TYPE":0,"NORAD_CAT_ID":41914,"ELEMENT_SET_NO":999,"REV_AT_EPOCH":52649,"BSTAR":0.00017475648,"MEAN_MOTION_DOT":0.00007437,"MEAN_MOTION_DDOT":0},{"OBJECT_NAME":"JILIN-1 04","OBJECT_ID":"2017-074A","EPOCH":"2026-07-17T07:26:44.000736","CLASSIFICATION_TYPE":"U","MEAN_MOTION":15.43167028,"ECCENTRICITY":0.00052276,"INCLINATION":97.4881,"RA_OF_ASC_NODE":308.7449,"ARG_OF_PERICENTER":94.9517,"MEAN_ANOMALY":265.2328,"EPHEMERIS_TYPE":0,"NORAD_CAT_ID":43022,"ELEMENT_SET_NO":999,"REV_AT_EPOCH":47891,"BSTAR":0.00018421823,"MEAN_MOTION_DOT":0.00008077,"MEAN_MOTION_DDOT":0},{"OBJECT_NAME":"JILIN-1 05","OBJECT_ID":"2017-074B","EPOCH":"2026-07-17T07:42:29.894976","CLASSIFICATION_TYPE":"U","MEAN_MOTION":15.34305303,"ECCENTRICITY":0.00065272,"INCLINATION":97.4884,"RA_OF_ASC_NODE":304.8947,"ARG_OF_PERICENTER":118.8101,"MEAN_ANOMALY":241.3798,"EPHEMERIS_TYPE":0,"NORAD_CAT_ID":43023,"ELEMENT_SET_NO":999,"REV_AT_EPOCH":47862,"BSTAR":0.00013826825,"MEAN_MOTION_DOT":0.00004512,"MEAN_MOTION_DDOT":0},{"OBJECT_NAME":"JILIN-1 06","OBJECT_ID":"2017-074C","EPOCH":"2026-07-17T05:34:27.086016","CLASSIFICATION_TYPE":"U","MEAN_MOTION":15.34010097,"ECCENTRICITY":0.00082039,"INCLINATION":97.4809,"RA_OF_ASC_NODE":301.7735,"ARG_OF_PERICENTER":128.0718,"MEAN_ANOMALY":232.1266,"EPHEMERIS_TYPE":0,"NORAD_CAT_ID":43024,"ELEMENT_SET_NO":999,"REV_AT_EPOCH":47844,"BSTAR":0.00010532521,"MEAN_MOTION_DOT":0.00003387,"MEAN_MOTION_DDOT":0},{"OBJECT_NAME":"JILIN-1 07","OBJECT_ID":"2018-008E","EPOCH":"2026-07-17T06:37:33.108960","CLASSIFICATION_TYPE":"U","MEAN_MOTION":15.35184358,"ECCENTRICITY":0.00065428,"INCLINATION":97.1764,"RA_OF_ASC_NODE":217.4107,"ARG_OF_PERICENTER":319.0554,"MEAN_ANOMALY":41.0198,"EPHEMERIS_TYPE":0,"NORAD_CAT_ID":43159,"ELEMENT_SET_NO":999,"REV_AT_EPOCH":46961,"BSTAR":0.00013853279,"MEAN_MOTION_DOT":0.00004656,"MEAN_MOTION_DDOT":0},{"OBJECT_NAME":"JILIN-1 08","OBJECT_ID":"2018-008F","EPOCH":"2026-07-17T07:08:39.926112","CLASSIFICATION_TYPE":"U","MEAN_MOTION":15.34023735,"ECCENTRICITY":0.00050536,"INCLINATION":97.1802,"RA_OF_ASC_NODE":216.7138,"ARG_OF_PERICENTER":344.3507,"MEAN_ANOMALY":15.758,"EPHEMERIS_TYPE":0,"NORAD_CAT_ID":43160,"ELEMENT_SET_NO":999,"REV_AT_EPOCH":46956,"BSTAR":0.000097860664,"MEAN_MOTION_DOT":0.00003146,"MEAN_MOTION_DDOT":0},{"OBJECT_NAME":"JILIN-1 09","OBJECT_ID":"2019-005B","EPOCH":"2026-07-17T07:38:05.752032","CLASSIFICATION_TYPE":"U","MEAN_MOTION":15.20751082,"ECCENTRICITY":0.00021207,"INCLINATION":97.4746,"RA_OF_ASC_NODE":293.0289,"ARG_OF_PERICENTER":31.0654,"MEAN_ANOMALY":329.0707,"EPHEMERIS_TYPE":0,"NORAD_CAT_ID":43943,"ELEMENT_SET_NO":999,"REV_AT_EPOCH":41372,"BSTAR":0.00010594182,"MEAN_MOTION_DOT":0.00002262,"MEAN_MOTION_DDOT":0},{"OBJECT_NAME":"JILIN-1 10","OBJECT_ID":"2019-005E","EPOCH":"2026-07-17T07:01:10.669440","CLASSIFICATION_TYPE":"U","MEAN_MOTION":15.26020089,"ECCENTRICITY":0.00087704,"INCLINATION":97.4799,"RA_OF_ASC_NODE":297.1045,"ARG_OF_PERICENTER":162.9572,"MEAN_ANOMALY":197.1962,"EPHEMERIS_TYPE":0,"NORAD_CAT_ID":43946,"ELEMENT_SET_NO":999,"REV_AT_EPOCH":41390,"BSTAR":0.00012201679,"MEAN_MOTION_DOT":0.00003067,"MEAN_MOTION_DDOT":0}]}
